CCSDS_OMM_VERS = 2.0
CREATION_DATE  = 
ORIGINATOR     = 

OBJECT_NAME    = SL-14 R/B
OBJECT_ID      = 1986-046B
CENTER_NAME    = EARTH
REF_FRAME      = TEME
TIME_SYSTEM    = UTC
MEAN_ELEMENT_THEORY = SGP/SGP4

EPOCH          = 2026-01-03T03:14:05.292672
MEAN_MOTION    = 14.85514581
ECCENTRICITY   = .00245479
INCLINATION    = 82.4827
RA_OF_ASC_NODE = 142.1091
ARG_OF_PERICENTER = 85.0922
MEAN_ANOMALY   = 275.3096

EPHEMERIS_TYPE = 0
CLASSIFICATION_TYPE = U
NORAD_CAT_ID   = 16792
ELEMENT_SET_NO = 999
REV_AT_EPOCH   = 11667
BSTAR          = .11712681E-3
MEAN_MOTION_DOT = .1041E-4
MEAN_MOTION_DDOT = 0

CCSDS_OMM_VERS = 2.0
CREATION_DATE  = 
ORIGINATOR     = 

OBJECT_NAME    = SL-14 R/B
OBJECT_ID      = 1986-055B
CENTER_NAME    = EARTH
REF_FRAME      = TEME
TIME_SYSTEM    = UTC
MEAN_ELEMENT_THEORY = SGP/SGP4

EPOCH          = 2026-01-03T06:54:44.040672
MEAN_MOTION    = 14.85558265
ECCENTRICITY   = .00187312
INCLINATION    = 82.5198
RA_OF_ASC_NODE = 188.1242
ARG_OF_PERICENTER = 184.3165
MEAN_ANOMALY   = 348.8768

EPHEMERIS_TYPE = 0
CLASSIFICATION_TYPE = U
NORAD_CAT_ID   = 16882
ELEMENT_SET_NO = 999
REV_AT_EPOCH   = 10965
BSTAR          = .11803381E-3
MEAN_MOTION_DOT = .1047E-4
MEAN_MOTION_DDOT = 0

CCSDS_OMM_VERS = 2.0
CREATION_DATE  = 
ORIGINATOR     = 

OBJECT_NAME    = AJISAI (EGS)
OBJECT_ID      = 1986-061A
CENTER_NAME    = EARTH
REF_FRAME      = TEME
TIME_SYSTEM    = UTC
MEAN_ELEMENT_THEORY = SGP/SGP4

EPOCH          = 2026-01-03T06:56:36.447936
MEAN_MOTION    = 12.44514583
ECCENTRICITY   = .00113187
INCLINATION    = 50.0104
RA_OF_ASC_NODE = 294.4548
ARG_OF_PERICENTER = 119.9818
MEAN_ANOMALY   = 56.8837

EPHEMERIS_TYPE = 0
CLASSIFICATION_TYPE = U
NORAD_CAT_ID   = 16908
ELEMENT_SET_NO = 999
REV_AT_EPOCH   = 45985
BSTAR          = .14507288E-3
MEAN_MOTION_DOT = -.77E-6
MEAN_MOTION_DDOT = 0

CCSDS_OMM_VERS = 2.0
CREATION_DATE  = 
ORIGINATOR     = 

OBJECT_NAME    = COSMOS 1812
OBJECT_ID      = 1987-003A
CENTER_NAME    = EARTH
REF_FRAME      = TEME
TIME_SYSTEM    = UTC
MEAN_ELEMENT_THEORY = SGP/SGP4

EPOCH          = 2026-01-03T03:59:42.280512
MEAN_MOTION    = 15.80821533
ECCENTRICITY   = .00047459
INCLINATION    = 82.4860
RA_OF_ASC_NODE = 268.7428
ARG_OF_PERICENTER = 60.1209
MEAN_ANOMALY   = 300.0530

EPHEMERIS_TYPE = 0
CLASSIFICATION_TYPE = U
NORAD_CAT_ID   = 17295
ELEMENT_SET_NO = 999
REV_AT_EPOCH   = 13403
BSTAR          = .90089825E-3
MEAN_MOTION_DOT = .176169E-2
MEAN_MOTION_DDOT = 0

CCSDS_OMM_VERS = 2.0
CREATION_DATE  = 
ORIGINATOR     = 

OBJECT_NAME    = SL-14 R/B
OBJECT_ID      = 1987-024B
CENTER_NAME    = EARTH
REF_FRAME      = TEME
TIME_SYSTEM    = UTC
MEAN_ELEMENT_THEORY = SGP/SGP4

EPOCH          = 2026-01-03T02:59:29.844672
MEAN_MOTION    = 14.86053799
ECCENTRICITY   = .00195106
INCLINATION    = 82.5286
RA_OF_ASC_NODE = 154.3655
ARG_OF_PERICENTER = 115.9880
MEAN_ANOMALY   = 244.3349

EPHEMERIS_TYPE = 0
CLASSIFICATION_TYPE = U
NORAD_CAT_ID   = 17567
ELEMENT_SET_NO = 999
REV_AT_EPOCH   = 7839
BSTAR          = .11974811E-3
MEAN_MOTION_DOT = .1075E-4
MEAN_MOTION_DDOT = 0

CCSDS_OMM_VERS = 2.0
CREATION_DATE  = 
ORIGINATOR     = 

OBJECT_NAME    = COSMOS 1833
OBJECT_ID      = 1987-027A
CENTER_NAME    = EARTH
REF_FRAME      = TEME
TIME_SYSTEM    = UTC
MEAN_ELEMENT_THEORY = SGP/SGP4

EPOCH          = 2026-01-03T07:24:56.863872
MEAN_MOTION    = 14.13035087
ECCENTRICITY   = .00235495
INCLINATION    = 70.9182
RA_OF_ASC_NODE = 103.4375
ARG_OF_PERICENTER = 301.7502
MEAN_ANOMALY   = 58.1325

EPHEMERIS_TYPE = 0
CLASSIFICATION_TYPE = U
NORAD_CAT_ID   = 17589
ELEMENT_SET_NO = 999
REV_AT_EPOCH   = 108
BSTAR          = .21307907E-3
MEAN_MOTION_DOT = .351E-5
MEAN_MOTION_DDOT = 0

CCSDS_OMM_VERS = 2.0
CREATION_DATE  = 
ORIGINATOR     = 

OBJECT_NAME    = SL-16 R/B
OBJECT_ID      = 1987-027B
CENTER_NAME    = EARTH
REF_FRAME      = TEME
TIME_SYSTEM    = UTC
MEAN_ELEMENT_THEORY = SGP/SGP4

EPOCH          = 2026-01-03T06:14:50.121312
MEAN_MOTION    = 14.17156352
ECCENTRICITY   = .00069676
INCLINATION    = 71.0030
RA_OF_ASC_NODE = 54.3708
ARG_OF_PERICENTER = 237.2315
MEAN_ANOMALY   = 122.8138

EPHEMERIS_TYPE = 0
CLASSIFICATION_TYPE = U
NORAD_CAT_ID   = 17590
ELEMENT_SET_NO = 999
REV_AT_EPOCH   = 607
BSTAR          = .64240059E-4
MEAN_MOTION_DOT = .82E-6
MEAN_MOTION_DDOT = 0

CCSDS_OMM_VERS = 2.0
CREATION_DATE  = 
ORIGINATOR     = 

OBJECT_NAME    = SL-14 R/B
OBJECT_ID      = 1987-038B
CENTER_NAME    = EARTH
REF_FRAME      = TEME
TIME_SYSTEM    = UTC
MEAN_ELEMENT_THEORY = SGP/SGP4

EPOCH          = 2026-01-03T05:17:39.732864
MEAN_MOTION    = 14.85287893
ECCENTRICITY   = .00199774
INCLINATION    = 82.5013
RA_OF_ASC_NODE = 358.4659
ARG_OF_PERICENTER = 25.4351
MEAN_ANOMALY   = 334.7843

EPHEMERIS_TYPE = 0
CLASSIFICATION_TYPE = U
NORAD_CAT_ID   = 17912
ELEMENT_SET_NO = 999
REV_AT_EPOCH   = 6951
BSTAR          = .11257078E-3
MEAN_MOTION_DOT = .994E-5
MEAN_MOTION_DDOT = 0

CCSDS_OMM_VERS = 2.0
CREATION_DATE  = 
ORIGINATOR     = 

OBJECT_NAME    = COSMOS 1844
OBJECT_ID      = 1987-041A
CENTER_NAME    = EARTH
REF_FRAME      = TEME
TIME_SYSTEM    = UTC
MEAN_ELEMENT_THEORY = SGP/SGP4

EPOCH          = 2026-01-03T04:49:27.461856
MEAN_MOTION    = 14.14538416
ECCENTRICITY   = .00288791
INCLINATION    = 70.8987
RA_OF_ASC_NODE = 172.3055
ARG_OF_PERICENTER = 123.1868
MEAN_ANOMALY   = 237.2029

EPHEMERIS_TYPE = 0
CLASSIFICATION_TYPE = U
NORAD_CAT_ID   = 17973
ELEMENT_SET_NO = 999
REV_AT_EPOCH   = 99432
BSTAR          = .13831999E-3
MEAN_MOTION_DOT = .218E-5
MEAN_MOTION_DDOT = 0

CCSDS_OMM_VERS = 2.0
CREATION_DATE  = 
ORIGINATOR     = 

OBJECT_NAME    = SL-14 R/B
OBJECT_ID      = 1987-055B
CENTER_NAME    = EARTH
REF_FRAME      = TEME
TIME_SYSTEM    = UTC
MEAN_ELEMENT_THEORY = SGP/SGP4

EPOCH          = 2026-01-03T05:00:34.532928
MEAN_MOTION    = 14.85547765
ECCENTRICITY   = .00195559
INCLINATION    = 82.4984
RA_OF_ASC_NODE = 50.7533
ARG_OF_PERICENTER = 227.3589
MEAN_ANOMALY   = 132.5980

EPHEMERIS_TYPE = 0
CLASSIFICATION_TYPE = U
NORAD_CAT_ID   = 18153
ELEMENT_SET_NO = 999
REV_AT_EPOCH   = 6021
BSTAR          = .10129355E-3
MEAN_MOTION_DOT = .902E-5
MEAN_MOTION_DDOT = 0

CCSDS_OMM_VERS = 2.0
CREATION_DATE  = 
ORIGINATOR     = 

OBJECT_NAME    = COSMOS 1867
OBJECT_ID      = 1987-060A
CENTER_NAME    = EARTH
REF_FRAME      = TEME
TIME_SYSTEM    = UTC
MEAN_ELEMENT_THEORY = SGP/SGP4

EPOCH          = 2026-01-02T16:49:50.203200
MEAN_MOTION    = 14.31490617
ECCENTRICITY   = .00138614
INCLINATION    = 65.0102
RA_OF_ASC_NODE = 131.5017
ARG_OF_PERICENTER = 273.3279
MEAN_ANOMALY   = 86.6219

EPHEMERIS_TYPE = 0
CLASSIFICATION_TYPE = U
NORAD_CAT_ID   = 18187
ELEMENT_SET_NO = 999
REV_AT_EPOCH   = 1049
BSTAR          = .65197626E-4
MEAN_MOTION_DOT = .73E-6
MEAN_MOTION_DDOT = 0

CCSDS_OMM_VERS = 2.0
CREATION_DATE  = 
ORIGINATOR     = 

OBJECT_NAME    = SL-14 R/B
OBJECT_ID      = 1988-001B
CENTER_NAME    = EARTH
REF_FRAME      = TEME
TIME_SYSTEM    = UTC
MEAN_ELEMENT_THEORY = SGP/SGP4

EPOCH          = 2026-01-03T03:10:39.118080
MEAN_MOTION    = 14.85450471
ECCENTRICITY   = .00196003
INCLINATION    = 82.5128
RA_OF_ASC_NODE = 257.0277
ARG_OF_PERICENTER = 94.7210
MEAN_ANOMALY   = 265.6245

EPHEMERIS_TYPE = 0
CLASSIFICATION_TYPE = U
NORAD_CAT_ID   = 18749
ELEMENT_SET_NO = 999
REV_AT_EPOCH   = 3229
BSTAR          = .98457567E-4
MEAN_MOTION_DOT = .876E-5
MEAN_MOTION_DDOT = 0

