SL-14 R/B               
1 16792U 86046B   26003.13478348  .00001041  00000+0  11713-3 0  9999
2 16792  82.4827 142.1091 0024547  85.0922 275.3096 14.85514581116679
SL-14 R/B               
1 16882U 86055B   26003.28800973  .00001047  00000+0  11803-3 0  9994
2 16882  82.5198 188.1242 0018731 184.3165 348.8768 14.85558265109658
AJISAI (EGS)            
1 16908U 86061A   26003.28931074 -.00000077  00000+0  14507-3 0  9994
2 16908  50.0104 294.4548 0011318 119.9818  56.8837 12.44514583459858
COSMOS 1812             
1 17295U 87003A   26003.16646158  .00176169  00000+0  90090-3 0  9990
2 17295  82.4860 268.7428 0004745  60.1209 300.0530 15.80821533134037
SL-14 R/B               
1 17567U 87024B   26003.12465098  .00001075  00000+0  11975-3 0  9991
2 17567  82.5286 154.3655 0019510 115.9880 244.3349 14.86053799 78394
COSMOS 1833             
1 17589U 87027A   26003.30899148  .00000351  00000+0  21308-3 0  9992
2 17589  70.9182 103.4375 0023549 301.7502  58.1325 14.13035087  1088
SL-16 R/B               
1 17590U 87027B   26003.26030233  .00000082  00000+0  64240-4 0  9995
2 17590  71.0030  54.3708 0006967 237.2315 122.8138 14.17156352  6076
SL-14 R/B               
1 17912U 87038B   26003.22059876  .00000994  00000+0  11257-3 0  9996
2 17912  82.5013 358.4659 0019977  25.4351 334.7843 14.85287893 69512
COSMOS 1844             
1 17973U 87041A   26003.20101229  .00000218  00000+0  13832-3 0  9995
2 17973  70.8987 172.3055 0028879 123.1868 237.2029 14.14538416994323
SL-14 R/B               
1 18153U 87055B   26003.20873302  .00000902  00000+0  10129-3 0  9995
2 18153  82.4984  50.7533 0019555 227.3589 132.5980 14.85547765 60218
COSMOS 1867             
1 18187U 87060A   26002.70127550  .00000073  00000+0  65198-4 0  9995
2 18187  65.0102 131.5017 0013861 273.3279  86.6219 14.31490617 10493
SL-14 R/B               
1 18749U 88001B   26003.13239720  .00000876  00000+0  98458-4 0  9992
2 18749  82.5128 257.0277 0019600  94.7210 265.6245 14.85450471 32291
